{
"type": "FeatureCollection",
"name": "rutas_globales",
"crs": { "type": "name", "properties": { "name": "urn:ogc:def:crs:OGC:1.3:CRS84" } },
"features": [
{ "type": "Feature", "properties": { "ruta": "Suez (tradicional)", "tipo": "comercio_europa_asia", "polo": "ninguno", "km": 18612.148473782087 }, "geometry": { "type": "LineString", "coordinates": [ [ 4.48, 51.92 ], [ 4.176290084648731, 51.543296507023214 ], [ 3.877559748232291, 51.16579544047098 ], [ 3.583671948344623, 50.787519373342334 ], [ 3.294494054740306, 50.408490070341053 ], [ 3.009897691002212, 50.028728522385052 ], [ 2.729758581657562, 49.648254979505779 ], [ 2.453956404627886, 49.26708898221591 ], [ 2.182374648889922, 48.885249391420309 ], [ 1.914900477217597, 48.502754416941727 ], [ 1.651424593870213, 48.119621644728873 ], [ 1.391841117088296, 47.735868062811875 ], [ 1.136047456256177, 47.351510086066241 ], [ 0.88394419358899, 46.966563579844014 ], [ 0.635434970201514, 46.581043882527773 ], [ 0.390426376416483, 46.194965827060116 ], [ 0.148827846170995, 45.808343761498911 ], [ -0.08944844461852, 45.421191568646016 ], [ -0.324487675870666, 45.033522684794676 ], [ -0.556372477467871, 44.645350117638593 ], [ -0.785183019832251, 44.256686463383502 ], [ -1.010997101078114, 43.867543923099994 ], [ -1.233890230867366, 43.477934318354251 ], [ -1.453935711091058, 43.087869106151842 ], [ -1.6712047134966, 42.697359393227416 ], [ -1.885766354376779, 42.306415949711848 ], [ -2.097687766433184, 41.915049222206882 ], [ -2.307034167922983, 41.523269346295187 ], [ -2.513868929194542, 41.131086158513078 ], [ -2.718253636713652, 40.738509207811255 ], [ -2.920248154678778, 40.345547766527737 ], [ -3.119910684320232, 39.952210840896164 ], [ -3.31729782097457, 39.558507181111146 ], [ -3.51246460902252, 39.164445290971443 ], [ -3.705464594775107, 38.77003343712073 ], [ -3.896349877389689, 38.375279657904521 ], [ -4.085171157894456, 37.98019177186108 ], [ -4.271977786396777, 37.584777385863298 ], [ -4.456817807548079, 37.189043902927374 ], [ -4.639738004334927, 36.792998529703652 ], [ -4.820783940263231, 36.396648283664057 ], [ -5.0, 36.0 ], [ -4.642368003258104, 36.058798801149031 ], [ -4.284208347963174, 36.116528556930355 ], [ -3.925528872432658, 36.173185470457511 ], [ -3.566337545719212, 36.228765800433692 ], [ -3.20664246640698, 36.283265862164939 ], [ -2.846451861339647, 36.336682028565825 ], [ -2.485774084280115, 36.389010731157008 ], [ -2.124617614501898, 36.440248461053955 ], [ -1.762991055312247, 36.49039176994637 ], [ -1.400903132507165, 36.539437271067563 ], [ -1.038362692758471, 36.587381640153197 ], [ -0.675378701933232, 36.634221616388828 ], [ -0.311960243345823, 36.679954003345486 ], [ 0.051883484056944, 36.724575669902897 ], [ 0.416143167577162, 36.768083551159449 ], [ 0.780809382713165, 36.810474649328597 ], [ 1.145872595172183, 36.851746034620803 ], [ 1.511323162947712, 36.891894846110638 ], [ 1.877151338460844, 36.930918292588302 ], [ 2.243347270764767, 36.968813653395046 ], [ 2.609901007811517, 37.005578279241881 ], [ 2.976802498780168, 37.041209593010961 ], [ 3.344041596465257, 37.075705090539124 ], [ 3.711608059724588, 37.109062341383016 ], [ 4.079491555985147, 37.141278989565222 ], [ 4.447681663805923, 37.172352754300874 ], [ 4.816167875496447, 37.202281430704204 ], [ 5.184939599789626, 37.231062890474483 ], [ 5.55398616456757, 37.258695082560969 ], [ 5.923296819638825, 37.28517603380611 ], [ 6.292860739565683, 37.310503849566864 ], [ 6.662667026539804, 37.334676714313346 ], [ 7.032704713304593, 37.35769289220454 ], [ 7.402962766122702, 37.379550727640591 ], [ 7.773430087786823, 37.400248645791187 ], [ 8.14409552067198, 37.419785153099774 ], [ 8.514947849827569, 37.438158837763048 ], [ 8.885975806107117, 37.455368370185468 ], [ 9.25716806933392, 37.471412503408374 ], [ 9.62851327150052, 37.48629007351343 ], [ 10.0, 37.5 ], [ 10.58308591698729, 37.393166722767589 ], [ 11.164497018066948, 37.283464522407741 ], [ 11.744200879574116, 37.170912878120198 ], [ 12.322166199912104, 37.055531615503156 ], [ 12.898362805470663, 36.937340892645764 ], [ 13.47276165510689, 36.816361186219787 ], [ 14.045334843219429, 36.692613277590056 ], [ 14.616055601448803, 36.566118238963135 ], [ 15.184898299039482, 36.436897419592555 ], [ 15.751838441900876, 36.304972432058598 ], [ 16.316852670406927, 36.170365138639795 ], [ 16.879918755975154, 36.033097637792629 ], [ 17.441015596467942, 35.89319225075522 ], [ 18.000123210459957, 35.750671508289926 ], [ 18.557222730416843, 35.605558137579123 ], [ 19.112296394831112, 35.457875049287672 ], [ 19.66532753936222, 35.30764532480471 ], [ 20.216300587028051, 35.15489220367671 ], [ 20.7652010374957, 34.999639071242903 ], [ 21.312015455519632, 34.841909446483463 ], [ 21.856731458575368, 34.681726970089926 ], [ 22.399337703736762, 34.519115392766857 ], [ 22.939823873844745, 34.354098563772624 ], [ 23.478180663015351, 34.186700419706646 ], [ 24.014399761533745, 34.016944973549776 ], [ 24.548473840181188, 33.844856303963638 ], [ 25.08039653404056, 33.670458544854021 ], [ 25.610162425825514, 33.493775875202921 ], [ 26.137767028777692, 33.314832509173044 ], [ 26.663206769174849, 33.133652686487913 ], [ 27.186478968492523, 32.95026066309017 ], [ 27.707581825259883, 32.764680702080163 ], [ 28.226514396650085, 32.57693706493594 ], [ 28.74327657984345, 32.387054003016004 ], [ 29.257869093201354, 32.195055749344561 ], [ 29.770293457286414, 32.000966510679611 ], [ 30.280551975764251, 31.804810459863081 ], [ 30.788647716219959, 31.606611728451728 ], [ 31.294584490921466, 31.406394399627683 ], [ 31.79836683756044, 31.20418250138642 ], [ 32.3, 31.0 ], [ 32.600595254718662, 30.559248957115145 ], [ 32.898483481476823, 30.117780358537786 ], [ 33.19373175340121, 29.675612391036299 ], [ 33.486405696006273, 29.23276280715665 ], [ 33.776569528260637, 28.789248940195346 ], [ 34.06428610274574, 28.345087718661937 ], [ 34.349616944913215, 27.900295680249556 ], [ 34.632622291449351, 27.454888985331582 ], [ 34.913361127756652, 27.008883430001685 ], [ 35.191891224563925, 26.562294458674199 ], [ 35.468269173677662, 26.115137176261079 ], [ 35.742550422888478, 25.667426359941196 ], [ 36.014789310047334, 25.219176470537189 ], [ 36.285039096327068, 24.770401663514647 ], [ 36.553351998685478, 24.321115799617857 ], [ 36.819779221546518, 23.871332455155734 ], [ 37.084370987716994, 23.421064931951417 ], [ 37.347176568556101, 22.970326266968179 ], [ 37.608244313415703, 22.5191292416241 ], [ 37.867621678369375, 22.067486390807481 ], [ 38.125355254248198, 21.615410011604446 ], [ 38.381490794001728, 21.162912171749966 ], [ 38.636073239402137, 20.710004717812971 ], [ 38.889146747109933, 20.256699283126011 ], [ 39.140754714119261, 19.803007295469428 ], [ 39.390939802600961, 19.348939984519649 ], [ 39.63974396416117, 18.894508389071113 ], [ 39.887208463533369, 18.439723364040606 ], [ 40.13337390172137, 17.984595587263005 ], [ 40.378280238610706, 17.529135566086488 ], [ 40.621966815065619, 17.073353643775597 ], [ 40.864472374528518, 16.617260005729982 ], [ 41.105835084138761, 16.16086468552621 ], [ 41.34609255538718, 15.704177570790169 ], [ 41.585281864322603, 15.247208408907147 ], [ 41.823439571326361, 14.789966812576212 ], [ 42.06060174047046, 14.3324622652159 ], [ 42.296803958474989, 13.874704126227318 ], [ 42.532081353279864, 13.416701636120999 ], [ 42.766468612245909, 12.958463921513566 ], [ 43.0, 12.5 ], [ 43.410160192119434, 12.574559275777498 ], [ 43.82055604755643, 12.648489871653826 ], [ 44.231187119260305, 12.721787618030397 ], [ 44.642052910264127, 12.794448372309994 ], [ 45.053152873622849, 12.866468019292242 ], [ 45.46448641236308, 12.937842471570601 ], [ 45.876052879444458, 13.008567669930697 ], [ 46.287851577733058, 13.078639583750023 ], [ 46.699881759986674, 13.148054211398792 ], [ 47.112142628852311, 13.216807580641897 ], [ 47.524633336875993, 13.284895749041862 ], [ 47.937352986525056, 13.352314804362665 ], [ 48.35030063022289, 13.419060864974329 ], [ 48.763475270396512, 13.48513008025817 ], [ 49.176875859536892, 13.550518631012578 ], [ 49.59050130027228, 13.615222729859241 ], [ 50.004350445454534, 13.679238621649652 ], [ 50.418422098258709, 13.742562583871823 ], [ 50.832715012295907, 13.805190927057049 ], [ 51.247227891739477, 13.86711999518662 ], [ 51.661959391464748, 13.928346166098359 ], [ 52.076908117202379, 13.988865851892838 ], [ 52.492072625705276, 14.048675499339167 ], [ 52.907451424929363, 14.107771590280192 ], [ 53.32304297422818, 14.166150642037062 ], [ 53.738845684561312, 14.223809207812879 ], [ 54.154857918716807, 14.280743877095439 ], [ 54.57107799154771, 14.336951276058896 ], [ 54.987504170222572, 14.39242806796414 ], [ 55.404134674490081, 14.447170953557833 ], [ 55.820967676958013, 14.501176671469965 ], [ 56.23800130338612, 14.554441998609708 ], [ 56.65523363299355, 14.606963750559554 ], [ 57.072662698780256, 14.658738781967473 ], [ 57.490286487862818, 14.709763986937048 ], [ 57.908102941824502, 14.760036299415372 ], [ 58.32610995707951, 14.809552693578631 ], [ 58.744305385251621, 14.858310184215155 ], [ 59.162687033566968, 14.9063058271059 ], [ 59.581252665261047, 14.953536719402095 ], [ 60.0, 15.0 ], [ 60.504685497971892, 14.773139887278974 ], [ 61.008322210878347, 14.545174600222422 ], [ 61.510924231548159, 14.316124111999587 ], [ 62.012505870550953, 14.086008343540854 ], [ 62.51308164962343, 13.85484716291656 ], [ 63.012666295217215, 13.622660384804094 ], [ 63.511274732168644, 13.389467770041232 ], [ 64.008922077491334, 13.15528902526334 ], [ 64.505623634291638, 12.92014380262237 ], [ 65.001394885807159, 12.68405169958552 ], [ 65.496251489568351, 12.447032258811271 ], [ 65.990209271682588, 12.209104968100835 ], [ 66.483284221240751, 11.97028926042278 ], [ 66.975492484845233, 11.730604514008816 ], [ 67.466850361258963, 11.49007005251865 ], [ 67.957374296174351, 11.248705145271876 ], [ 68.447080877101087, 11.006529007544859 ], [ 68.935986828371668, 10.763560800930694 ], [ 69.424109006263322, 10.519819633760189 ], [ 69.911464394234855, 10.275324561581982 ], [ 70.398070098276747, 10.030094587699926 ], [ 70.883943342373186, 9.78414866376575 ], [ 71.369101464073765, 9.537505690425327 ], [ 71.853561910173454, 9.290184518016511 ], [ 72.3373422324985, 9.04220394731699 ], [ 72.820460083796519, 8.793582730340196 ], [ 73.302933213728522, 8.544339571177687 ], [ 73.784779464960479, 8.294493126886252 ], [ 74.266016769352689, 8.044062008418058 ], [ 74.746663144244039, 7.793064781592238 ], [ 75.226736688829106, 7.541519968106322 ], [ 75.70625558062558, 7.289446046585893 ], [ 76.185238072029435, 7.036861453670965 ], [ 76.663702486955415, 6.783784585137563 ], [ 77.141667217560183, 6.530233797052985 ], [ 77.619150721045386, 6.276227406963338 ], [ 78.096171516538206, 6.021783695111855 ], [ 78.572748182046453, 5.76692090568666 ], [ 79.04889935148563, 5.511657248096538 ], [ 79.524643711774957, 5.256010898273384 ], [ 80.0, 5.0 ], [ 80.487733710117354, 5.007335760624908 ], [ 80.975478021022894, 5.014308094314605 ], [ 81.463232408109377, 5.020916484977372 ], [ 81.950996343785945, 5.027160443421484 ], [ 82.438769297634011, 5.033039507397645 ], [ 82.926550736564039, 5.038553241639129 ], [ 83.41434012497318, 5.043701237899584 ], [ 83.902136924903644, 5.048483114988528 ], [ 84.38994059620191, 5.052898518804481 ], [ 84.877750596678538, 5.056947122365778 ], [ 85.36556638226871, 5.060628625839032 ], [ 85.85338740719321, 5.063942756565224 ], [ 86.341213124120216, 5.066889269083466 ], [ 86.829042984327259, 5.069467945152379 ], [ 87.316876437863911, 5.071678593769107 ], [ 87.80471293371464, 5.073521051185979 ], [ 88.292551919962165, 5.074995180924775 ], [ 88.780392843950949, 5.076100873788629 ], [ 89.268235152451084, 5.076838047871562 ], [ 89.756078291822234, 5.077206648565615 ], [ 90.243921708177766, 5.077206648565614 ], [ 90.731764847548916, 5.076838047871562 ], [ 91.219607156049051, 5.076100873788629 ], [ 91.707448080037835, 5.074995180924774 ], [ 92.195287066285346, 5.073521051185979 ], [ 92.683123562136075, 5.071678593769108 ], [ 93.170957015672727, 5.069467945152379 ], [ 93.658786875879784, 5.066889269083466 ], [ 94.146612592806775, 5.063942756565224 ], [ 94.63443361773129, 5.060628625839032 ], [ 95.122249403321447, 5.056947122365778 ], [ 95.610059403798076, 5.05289851880448 ], [ 96.097863075096356, 5.048483114988527 ], [ 96.585659875026806, 5.043701237899584 ], [ 97.073449263435947, 5.038553241639129 ], [ 97.561230702365975, 5.033039507397646 ], [ 98.049003656214055, 5.027160443421483 ], [ 98.536767591890609, 5.020916484977372 ], [ 99.024521978977106, 5.014308094314604 ], [ 99.512266289882632, 5.007335760624908 ], [ 100.0, 5.0 ], [ 100.122381377601386, 4.927194357763309 ], [ 100.244736119643463, 4.854366042989524 ], [ 100.367064619328531, 4.781515397017295 ], [ 100.489367270007932, 4.70864276100976 ], [ 100.611644465179424, 4.635748475957071 ], [ 100.733896598484364, 4.562832882678914 ], [ 100.856124063705096, 4.489896321827069 ], [ 100.97832725476222, 4.416939133887923 ], [ 101.100506565711981, 4.343961659185037 ], [ 101.22266239074365, 4.270964237881694 ], [ 101.344795124176869, 4.197947209983448 ], [ 101.466905160459106, 4.124910915340705 ], [ 101.588992894163056, 4.051855693651281 ], [ 101.711058719984152, 3.978781884462974 ], [ 101.833103032737938, 3.905689827176154 ], [ 101.955126227357667, 3.832579861046337 ], [ 102.077128698891727, 3.75945232518678 ], [ 102.19911084250117, 3.686307558571074 ], [ 102.32107305345734, 3.613145900035739 ], [ 102.44301572713934, 3.539967688282834 ], [ 102.564939259031618, 3.466773261882555 ], [ 102.686844044721639, 3.393562959275859 ], [ 102.80873047989742, 3.320337118777067 ], [ 102.930598960345151, 3.247096078576499 ], [ 103.052449881946913, 3.173840176743082 ], [ 103.174283640678254, 3.100569751226995 ], [ 103.296100632605913, 3.027285139862292 ], [ 103.417901253885475, 2.953986680369533 ], [ 103.539685900759082, 2.880674710358441 ], [ 103.661454969553162, 2.807349567330529 ], [ 103.783208856676168, 2.734011588681753 ], [ 103.904947958616248, 2.660661111705166 ], [ 104.026672671939096, 2.587298473593567 ], [ 104.148383393285656, 2.513924011442158 ], [ 104.270080519369884, 2.440538062251207 ], [ 104.391764446976651, 2.36714096292871 ], [ 104.513435572959409, 2.293733050293056 ], [ 104.635094294238073, 2.220314661075698 ], [ 104.756741007796847, 2.146886131923825 ], [ 104.878376110682069, 2.07344779940303 ], [ 105.0, 2.0 ], [ 105.359028420212127, 2.724474209995387 ], [ 105.718486259275906, 3.448832023496991 ], [ 106.078488577164094, 4.17304226374193 ], [ 106.439151039792023, 4.897073597246197 ], [ 106.80059004878683, 5.620894500036307 ], [ 107.162922872676276, 6.344473223394631 ], [ 107.526267779750668, 7.067777759030085 ], [ 107.890744172855079, 7.790775803583887 ], [ 108.256472726373119, 8.513434722377866 ], [ 108.623575525667519, 9.235721512310278 ], [ 108.992176209248129, 9.957602763801271 ], [ 109.362400113942854, 10.679044621686856 ], [ 109.734374423353174, 11.400012744956834 ], [ 110.108228319881803, 12.1204722652281 ], [ 110.484093140626513, 12.840387743840555 ], [ 110.862102537441331, 13.559723127458248 ], [ 111.242392641472961, 14.278441702053135 ], [ 111.625102232488217, 14.99650604514361 ], [ 112.010372913315109, 15.713877976153784 ], [ 112.398349289728557, 16.430518504753284 ], [ 112.789179156118664, 17.146387777030458 ], [ 113.183013687287428, 17.861445019344309 ], [ 113.580007636726776, 18.575648479692962 ], [ 113.980319541737884, 19.288955366427661 ], [ 114.384111935757673, 20.00132178413245 ], [ 114.791551568264367, 20.712702666480233 ], [ 115.202809632638207, 21.423051705865308 ], [ 115.618062002356695, 22.132321279602149 ], [ 116.037489475905488, 22.840462372468242 ], [ 116.461278030785564, 23.547424495356953 ], [ 116.8896190869945, 24.25315559979337 ], [ 117.322709780354216, 24.957601988052581 ], [ 117.760753246048111, 25.660708218605755 ], [ 118.203958912717184, 26.362417006604115 ], [ 118.652542807446565, 27.062669119095663 ], [ 119.106727871949786, 27.761403264653048 ], [ 119.56674429022695, 28.458555977073935 ], [ 120.032829827934464, 29.154061492797947 ], [ 120.505230183655371, 29.847851621666099 ], [ 120.984199352200619, 30.539855610630045 ], [ 121.47, 31.23 ] ] } },
{ "type": "Feature", "properties": { "ruta": "Northern Sea Route (Ártico)", "tipo": "comercio_europa_asia", "polo": "artico", "km": 13376.369397970659 }, "geometry": { "type": "LineString", "coordinates": [ [ 4.48, 51.92 ], [ 4.589927496388031, 52.119813382011586 ], [ 4.700842241974762, 52.319516563761667 ], [ 4.812759794603565, 52.519107884245614 ], [ 4.925696018711194, 52.718585648160278 ], [ 5.039667092654652, 52.917948125019073 ], [ 5.154689516236701, 53.117193548240699 ], [ 5.270780118435948, 53.316320114210761 ], [ 5.387956065347353, 53.515325981315279 ], [ 5.506234868339535, 53.714209268945162 ], [ 5.625634392435055, 53.912968056470852 ], [ 5.746172864920297, 54.111600382185649 ], [ 5.867868884191673, 54.310104242217314 ], [ 5.990741428845105, 54.508477589406304 ], [ 6.11480986701577, 54.706718332149691 ], [ 6.240093965975613, 54.904824333209689 ], [ 6.366613901996014, 55.102793408485518 ], [ 6.49439027048342, 55.300623325747154 ], [ 6.623444096395836, 55.498311803329912 ], [ 6.753796844948402, 55.695856508788388 ], [ 6.885470432616383, 55.893255057508242 ], [ 7.018487238444196, 56.090505011274551 ], [ 7.152870115669339, 56.287603876795025 ], [ 7.288642403670269, 56.484549104176693 ], [ 7.425827940247489, 56.681338085354142 ], [ 7.564451074247399, 56.877968152467965 ], [ 7.704536678538714, 57.074436576191275 ], [ 7.846110163351358, 57.270740564002779 ], [ 7.989197489988131, 57.466877258404288 ], [ 8.133825184919598, 57.66284373508072 ], [ 8.28002035427288, 57.858637001000709 ], [ 8.427810698725352, 58.054253992455443 ], [ 8.57722452881425, 58.249691573033694 ], [ 8.728290780673778, 58.444946531530675 ], [ 8.881039032211147, 58.640015579788397 ], [ 9.035499519733484, 58.834895350465025 ], [ 9.191703155037496, 59.029582394730589 ], [ 9.349681542974276, 59.224073179886588 ], [ 9.509466999501495, 59.418364086906479 ], [ 9.671092570235619, 59.612451407894433 ], [ 9.834592049516921, 59.806331343459192 ], [ 10.0, 60.0 ], [ 10.25123044855326, 60.258545357776967 ], [ 10.506450382656615, 60.516597754295461 ], [ 10.765758336495317, 60.774144437351694 ], [ 11.029255772440417, 61.031172226314126 ], [ 11.297047175596015, 61.287667495191499 ], [ 11.569240151043598, 61.543616154968149 ], [ 11.845945523790347, 61.799003635174074 ], [ 12.127277441417764, 62.053814864656751 ], [ 12.413353479414539, 62.308034251519885 ], [ 12.704294749163385, 62.561645662193627 ], [ 13.00022600853549, 62.814632399599333 ], [ 13.301275775027703, 63.066977180370813 ], [ 13.607576441356773, 63.318662111093005 ], [ 13.919264393401239, 63.56966866351793 ], [ 14.236480130354879, 63.819977648716801 ], [ 14.559368386925563, 64.069569190126089 ], [ 14.888078257379384, 64.318422695445008 ], [ 15.222763321192136, 64.566516827340678 ], [ 15.563581770027557, 64.813829472916979 ], [ 15.910696535714187, 65.06033771190306 ], [ 16.264275418839798, 65.306017783516921 ], [ 16.624491217523023, 65.550845051959897 ], [ 16.991521855856341, 65.794793970498588 ], [ 17.365550511441388, 66.037838044091473 ], [ 17.746765741356896, 66.279949790518572 ], [ 18.135361605809972, 66.52110069997488 ], [ 18.531537788622899, 66.761261193090419 ], [ 18.93549971359834, 67.000400577342376 ], [ 19.347458655686715, 67.238487001829782 ], [ 19.767631845747239, 67.475487410384574 ], [ 20.196242567550762, 67.711367492999344 ], [ 20.633520245514326, 67.946091635558844 ], [ 21.079700521486235, 68.179622867869767 ], [ 21.535025318712748, 68.41192280999357 ], [ 21.999742890915265, 68.642951616897264 ], [ 22.47410785418715, 68.872667921450528 ], [ 22.958381199182636, 69.10102877581204 ], [ 23.45283028081618, 69.327989591264384 ], [ 23.957728782418243, 69.553504076576928 ], [ 24.473356651003531, 69.777524174997751 ], [ 25.0, 70.0 ], [ 25.434399037400272, 70.072912391631505 ], [ 25.871833671647373, 70.144760672774567 ], [ 26.312291659111438, 70.215533277332227 ], [ 26.755759258313876, 70.285218647486928 ], [ 27.202221197853039, 70.353805240209397 ], [ 27.65166064527337, 70.421281533963338 ], [ 28.104059176983601, 70.487636035602719 ], [ 28.559396749331277, 70.552857287457584 ], [ 29.017651670943533, 70.616933874603916 ], [ 29.478800576444751, 70.679854432311927 ], [ 29.942818401664034, 70.74160765366716 ], [ 30.409678360445206, 70.802182297357504 ], [ 30.879351923173555, 70.861567195618747 ], [ 31.351808797132726, 70.91975126233072 ], [ 31.827016908805266, 70.976723501255009 ], [ 32.304942388229222, 71.032473014404815 ], [ 32.785549555521747, 71.086989010536698 ], [ 33.268800909678724, 71.140260813753017 ], [ 33.754657119757098, 71.192277872203604 ], [ 34.243077018543019, 71.243029766874017 ], [ 34.734017598806062, 71.292506220447379 ], [ 35.227434012234589, 71.340697106225875 ], [ 35.723279571143337, 71.387592457097554 ], [ 36.221505753038237, 71.433182474533197 ], [ 36.722062208117812, 71.477457537597786 ], [ 37.22489676978357, 71.520408211959889 ], [ 37.729955468224894, 71.562025258882684 ], [ 38.237182547135752, 71.602299644178856 ], [ 38.746520483612571, 71.641222547112079 ], [ 39.257910011273282, 71.678785369226517 ], [ 39.771290146628679, 71.714979743086275 ], [ 40.286598218726844, 71.749797540906002 ], [ 40.80376990208147, 71.783230883053491 ], [ 41.32273925288392, 71.815272146405604 ], [ 41.843438748488197, 71.845913972537971 ], [ 42.365799330146196, 71.875149275729569 ], [ 42.889750448959447, 71.902971250763173 ], [ 43.415220115001716, 71.929373380502284 ], [ 43.942134949554728, 71.954349443226533 ], [ 44.470420240387824, 71.977893519706441 ], [ 45.0, 72.0 ], [ 45.562233267170114, 72.060188318840147 ], [ 46.128074861040254, 72.118748057492084 ], [ 46.697459935153269, 72.17566319431873 ], [ 47.270320175851985, 72.230917955199828 ], [ 47.846583798099203, 72.284496832217783 ], [ 48.426175548423842, 72.336384602462772 ], [ 49.009016715253864, 72.386566346913497 ], [ 49.595025146875471, 72.435027469348654 ], [ 50.184115277234085, 72.481753715241751 ], [ 50.776198159766466, 72.526731190590212 ], [ 51.371181509424318, 72.569946380628551 ], [ 51.968969753019081, 72.611386168373471 ], [ 52.569464087984514, 72.65103785294788 ], [ 53.172562549618291, 72.688889167630094 ], [ 53.778160086827505, 72.724928297573342 ], [ 54.386148646364148, 72.759143897140518 ], [ 54.996417265496987, 72.791525106799355 ], [ 55.608852173025625, 72.82206156952239 ], [ 56.22333689850047, 72.850743446637793 ], [ 56.839752389470689, 72.877561433076693 ], [ 57.457977136539569, 72.902506771964639 ], [ 58.077887305964843, 72.925571268505465 ], [ 58.699356879499682, 72.946747303108282 ], [ 59.322257801129517, 72.966027843709441 ], [ 59.946460130320247, 72.98340645724457 ], [ 60.57183220135542, 72.998877320227379 ], [ 61.198240788303927, 73.012435228395773 ], [ 61.825551275126138, 73.024075605388191 ], [ 62.453627830394922, 73.033794510416897 ], [ 63.08233358607994, 73.041588644908515 ], [ 63.711530819818364, 73.047455358085671 ], [ 64.3410811400732, 73.051392651468092 ], [ 64.970845673562565, 73.053399182275029 ], [ 65.600685254328766, 73.053474265716005 ], [ 66.230460613805576, 73.051617876160179 ], [ 66.860032571235791, 73.047830647180177 ], [ 67.489262223788984, 73.042113870470018 ], [ 68.118011135731336, 73.034469493641424 ], [ 68.746141526005147, 73.024900116907247 ], [ 69.373516453586063, 73.013408988665319 ], [ 70.0, 73.0 ], [ 70.663950130038316, 73.072969557085486 ], [ 71.333394137612402, 73.143776464066278 ], [ 72.0082331603912, 73.212393405561798 ], [ 72.688361034571997, 73.278793469488804 ], [ 73.373664244079237, 73.342950190958774 ], [ 74.064021889888679, 73.404837596779487 ], [ 74.759305680595418, 73.464430250425607 ], [ 75.459379945270371, 73.52170329733336 ], [ 76.16410166956193, 73.576632510365414 ], [ 76.873320555898275, 73.629194335283628 ], [ 77.586879108530866, 73.679365936059838 ], [ 78.304612744031786, 73.727125239847638 ], [ 79.026349927717149, 73.772450981432911 ], [ 79.751912336317091, 73.815322746975838 ], [ 80.481115047050082, 73.855721016853408 ], [ 81.213766753088237, 73.893627207409992 ], [ 81.94967000522054, 73.929023711422019 ], [ 82.688621479335865, 73.961893937084028 ], [ 83.430412269158325, 73.992222345325317 ], [ 84.174828203476068, 74.019994485270544 ], [ 84.921650186913382, 74.045197027662454 ], [ 85.670654563106936, 74.06781779607276 ], [ 86.421613498963112, 74.087845795735007 ], [ 87.174295388496049, 74.105271239843773 ], [ 87.928465274578201, 74.120085573176198 ], [ 88.683885286779486, 74.132281492904539 ], [ 89.440315093328351, 74.141852966483086 ], [ 90.197512365101829, 74.14879524650793 ], [ 90.955233249442657, 74.153104882464731 ], [ 91.713232851511464, 74.154779729296934 ], [ 92.471265720813349, 74.153818952744956 ], [ 93.229086340489303, 74.15022303142527 ], [ 93.986449616938472, 74.143993755637439 ], [ 94.743111367333114, 74.135134222906004 ], [ 95.498828802608358, 74.123648830282946 ], [ 96.253361003550566, 74.109543263455564 ], [ 97.006469387671501, 74.092824482722065 ], [ 97.757918164640088, 74.073500705915606 ], [ 98.507474778147682, 74.051581388373449 ], [ 99.25491033220402, 74.027077200064127 ], [ 100.0, 74.0 ], [ 101.01684908359303, 74.046343198526927 ], [ 102.039166040471244, 74.087888374089317 ], [ 103.066389763182954, 74.124597913618203 ], [ 104.097941624833183, 74.156438253676924 ], [ 105.133227327375437, 74.183380030371978 ], [ 106.171638888542347, 74.20539821243041 ], [ 107.212556752023218, 74.222472216064247 ], [ 108.255352003461695, 74.234586000410275 ], [ 109.299388673063589, 74.241728142522916 ], [ 110.344026104121582, 74.243891891108206 ], [ 111.388621365621248, 74.241075198411266 ], [ 112.432531686321013, 74.233280729907392 ], [ 113.475116887321846, 74.220515851689413 ], [ 114.515741790168576, 74.202792595690653 ], [ 115.553778577955143, 74.180127603125399 ], [ 116.588609087726823, 74.15254204676404 ], [ 117.619627013662353, 74.120061532884193 ], [ 118.646240002043669, 74.08271598394532 ], [ 119.667871620839804, 74.040539503222504 ], [ 120.683963188796042, 73.993570222798425 ], [ 121.693975451175845, 73.941850136452075 ], [ 122.697390091694771, 73.885424919093637 ], [ 123.693711072655105, 73.824343734478731 ], [ 124.68246579778021, 73.758659032990053 ], [ 125.663206094704449, 73.688426341301053 ], [ 126.635509016447799, 73.613704045736654 ], [ 127.598977463450382, 73.534553171119938 ], [ 128.553240629822, 73.45103715684543 ], [ 129.497954279345407, 73.363221631849783 ], [ 130.432800858436281, 73.271174190063036 ], [ 131.357489454691631, 73.174964167820718 ], [ 132.271755610843485, 73.074662424602366 ], [ 133.175361004874816, 72.970341128337679 ], [ 134.068093007752282, 72.862073546390917 ], [ 134.949764130699748, 72.749933843201219 ], [ 135.820211374185277, 72.63399688542043 ], [ 136.679295490846897, 72.514338055257653 ], [ 137.526900174452834, 72.391033072609048 ], [ 138.362931186707385, 72.264157826426441 ], [ 139.187315433292071, 72.133788215660175 ], [ 140.0, 72.0 ], [ 140.958345719316355, 71.901872218647682 ], [ 141.90646918562544, 71.799057194869476 ], [ 142.844077850478698, 71.691633747351716 ], [ 143.770906891635292, 71.579682347597227 ], [ 144.686718824216626, 71.463284873802621 ], [ 145.591302984464477, 71.342524371822577 ], [ 146.484474899257037, 71.217484824321318 ], [ 147.366075554729406, 71.088250929049025 ], [ 148.235970577320671, 70.954907887022785 ], [ 149.094049340356463, 70.817541201236878 ], [ 149.940224008892812, 70.676236486380375 ], [ 150.774428535027795, 70.531079289901385 ], [ 151.596617615250238, 70.382154924628409 ], [ 152.406765620669887, 70.229548313040837 ], [ 153.204865510181662, 70.073343843173987 ], [ 153.990927735780815, 69.913625236048091 ], [ 154.764979148384469, 69.750475424427165 ], [ 155.527061911647422, 69.583976442640491 ], [ 156.277232430399749, 69.414209327138209 ], [ 157.01556029949333, 69.241254027401126 ], [ 157.742127278035895, 69.065189326783212 ], [ 158.45702629322119, 68.886092772833464 ], [ 159.160360477239635, 68.704040616619665 ], [ 159.852242240079818, 68.51910776055999 ], [ 160.532792380409177, 68.331367714259528 ], [ 161.202139236156683, 68.140892557844836 ], [ 161.860417875906535, 67.947752912291179 ], [ 162.507769331754787, 67.752017916243958 ], [ 163.144339873875083, 67.553755208845288 ], [ 163.770280326683348, 67.353030918090084 ], [ 164.38574542618511, 67.149909654251857 ], [ 164.990893217824606, 66.944454507936072 ], [ 165.585884493934117, 66.736727052338523 ], [ 166.170882269698865, 66.526787349306403 ], [ 166.746051296403152, 66.31469395882111 ], [ 167.311557610606968, 66.100503951543658 ], [ 167.867568117813107, 65.884272924084996 ], [ 168.4142502091197, 65.666055016685533 ], [ 168.951771409312499, 65.445902933009265 ], [ 169.480299054826332, 65.223867961779121 ], [ 170.0, 65.0 ], [ 170.0, 64.756272336258277 ], [ 170.0, 64.512536596203091 ], [ 170.0, 64.268792723098869 ], [ 170.0, 64.025040660789344 ], [ 170.0, 63.781280353701796 ], [ 170.0, 63.537511746851074 ], [ 170.0, 63.293734785843696 ], [ 170.0, 63.049949416881844 ], [ 170.0, 62.80615558676736 ], [ 170.0, 62.562353242905687 ], [ 170.0, 62.318542333309779 ], [ 170.0, 62.074722806603944 ], [ 170.0, 61.830894612027677 ], [ 170.0, 61.587057699439434 ], [ 170.0, 61.343212019320369 ], [ 170.0, 61.099357522778021 ], [ 170.0, 60.855494161549998 ], [ 170.0, 60.611621888007562 ], [ 170.0, 60.367740655159182 ], [ 170.0, 60.123850416654122 ], [ 170.0, 59.879951126785841 ], [ 170.0, 59.636042740495498 ], [ 170.0, 59.392125213375309 ], [ 170.0, 59.148198501671935 ], [ 170.0, 58.904262562289745 ], [ 170.0, 58.660317352794102 ], [ 170.0, 58.416362831414574 ], [ 170.0, 58.172398957048117 ], [ 170.0, 57.92842568926222 ], [ 170.0, 57.684442988297896 ], [ 170.0, 57.440450815072843 ], [ 170.0, 57.196449131184345 ], [ 170.0, 56.95243789891223 ], [ 170.0, 56.708417081221832 ], [ 170.0, 56.464386641766694 ], [ 170.0, 56.220346544891555 ], [ 170.0, 55.976296755634934 ], [ 170.0, 55.732237239731973 ], [ 170.0, 55.488167963616988 ], [ 170.0, 55.244088894426142 ], [ 170.0, 55.0 ], [ 169.406118563908336, 54.802373846586157 ], [ 168.818045994668637, 54.601863553248101 ], [ 168.235764647352852, 54.398518094745853 ], [ 167.659253522505395, 54.192386023773494 ], [ 167.088488441814889, 53.983515445229635 ], [ 166.523442220833516, 53.771953992526065 ], [ 165.964084838386611, 53.557748805870496 ], [ 165.410383602357427, 53.340946512456448 ], [ 164.862303311572589, 53.121593208491362 ], [ 164.319806413552527, 52.899734442992383 ], [ 163.782853157927406, 52.675415203278014 ], [ 163.251401745353519, 52.448679902083498 ], [ 162.725408471796982, 52.219572366227027 ], [ 162.204827868081878, 51.988135826754672 ], [ 161.689612834626985, 51.754412910491482 ], [ 161.179714771321443, 51.518445632927779 ], [ 160.67508370251295, 51.280275392370115 ], [ 160.175668397103038, 51.0399429652877 ], [ 159.681416483764082, 50.797488502786848 ], [ 159.192274561310086, 50.552951528146949 ], [ 158.708188304268049, 50.306370935353875 ], [ 158.229102563712473, 50.057784988568137 ], [ 157.754961463436388, 49.807231322467423 ], [ 157.285708491543687, 49.554746943404687 ], [ 156.821286587557438, 49.300368231325734 ], [ 156.361638225145782, 49.044130942391753 ], [ 155.906705490575149, 48.786070212254842 ], [ 155.456430157005173, 48.526220559936597 ], [ 155.010753754744599, 48.264615892261887 ], [ 154.569617637591534, 48.001289508802536 ], [ 154.132963045383178, 47.736274107287144 ], [ 153.700731162883301, 47.469601789436105 ], [ 153.272863175135456, 47.201304067182299 ], [ 152.849300319411896, 46.931411869240577 ], [ 152.42998393388703, 46.659955547990691 ], [ 152.014855503163943, 46.386964886640477 ], [ 151.603856700781591, 46.112469106637988 ], [ 151.196929428828696, 45.836496875303048 ], [ 150.794015854788114, 45.559076313650444 ], [ 150.39505844573381, 45.280235004378689 ], [ 150.0, 45.0 ], [ 149.168343459022225, 44.759421802368927 ], [ 148.343645970316402, 44.512827535613475 ], [ 147.525957054704691, 44.260318029278508 ], [ 146.715317394337745, 44.001994339639019 ], [ 145.911759122610817, 43.737957617869398 ], [ 145.115306124606946, 43.468308984643144 ], [ 144.325974345981393, 43.193149411241514 ], [ 143.543772108305888, 42.912579607209729 ], [ 142.768700429005776, 42.626699914561421 ], [ 142.000753344141913, 42.335610208499027 ], [ 141.239918232410844, 42.039409804585638 ], [ 140.486176138862106, 41.738197372276915 ], [ 139.739502096955334, 41.43207085469632 ], [ 138.999865447705275, 41.121127394515376 ], [ 138.267230154782851, 40.805463265781619 ], [ 137.541555114561305, 40.485173811520745 ], [ 136.822794460210645, 40.160353386925856 ], [ 136.110897859054148, 39.831095307935641 ], [ 135.405810802506693, 39.497491804994297 ], [ 134.707474888014872, 39.159633981779692 ], [ 134.015828092512038, 38.817611778680991 ], [ 133.330805036991109, 38.4715139408044 ], [ 132.652337241878683, 38.121427990284275 ], [ 131.980353372970626, 37.767440202676646 ], [ 131.314779477758748, 37.409635587214161 ], [ 130.655539212041987, 37.048097870703415 ], [ 130.00255405677305, 36.682909484849645 ], [ 129.355743525144135, 36.314151556797988 ], [ 128.715025359961089, 35.941903902685624 ], [ 128.080315721397824, 35.566245024005013 ], [ 127.451529365258466, 35.187252106584758 ], [ 126.828579811907332, 34.805001022001157 ], [ 126.211379506053461, 34.419566331240709 ], [ 125.599839967600758, 34.031021290440904 ], [ 124.993871933794154, 33.639437858544412 ], [ 124.39338549290828, 33.24488670670867 ], [ 123.798290209738582, 32.847437229321159 ], [ 123.208495243165146, 32.44715755647762 ], [ 122.623909456066428, 32.044114567788093 ], [ 122.044441517866233, 31.638373907383183 ], [ 121.47, 31.23 ] ] } },
{ "type": "Feature", "properties": { "ruta": "Punta Arenas → McMurdo (Antártida)", "tipo": "logistica_cientifica", "polo": "antartico", "km": 4951.6136089939546 }, "geometry": { "type": "LineString", "coordinates": [ [ -70.91, -53.16 ], [ -71.098208270237251, -53.585888930959833 ], [ -71.290237650178909, -54.01144533077138 ], [ -71.486224596915122, -54.436658398869071 ], [ -71.686311830627375, -54.861516823502797 ], [ -71.89064869131046, -55.286008751022223 ], [ -72.099391519354867, -55.710121753002873 ], [ -72.312704061802492, -56.133842791038973 ], [ -72.5307579062396, -56.557158179011573 ], [ -72.753732944456118, -56.980053542623466 ], [ -72.981817868179022, -57.402513775972103 ], [ -73.215210699382965, -57.824522994911298 ], [ -73.454119357893134, -58.246064486927793 ], [ -73.698762269226037, -58.667120657233369 ], [ -73.949369015864903, -59.08767297074418 ], [ -74.206181035438689, -59.507701889586627 ], [ -74.469452369569595, -59.927186805734479 ], [ -74.739450467474967, -60.346105968342442 ], [ -75.016457048757502, -60.764436405298106 ], [ -75.300769030193734, -61.182153838466654 ], [ -75.592699521738069, -61.599232592049233 ], [ -75.892578897397826, -62.01564549341704 ], [ -76.200755947107098, -62.431363765718174 ], [ -76.517599116233356, -62.846356911481358 ], [ -76.843497839892251, -63.260592586360524 ], [ -77.178863979821955, -63.67403646207471 ], [ -77.524133372179293, -64.086652077498854 ], [ -77.879767495261561, -64.49840067675062 ], [ -78.246255266828598, -64.909241032996832 ], [ -78.62411498139241, -65.319129256566967 ], [ -79.013896398547814, -65.728018585811554 ], [ -79.416182994125009, -66.135859158976558 ], [ -79.831594386637576, -66.542597765180659 ], [ -80.260788952152026, -66.948177572379194 ], [ -80.704466641289713, -67.352537829973429 ], [ -81.163372012545494, -67.755613543476798 ], [ -81.638297496419881, -68.157335118378825 ], [ -82.130086904940129, -68.557627970049197 ], [ -82.639639200906927, -68.956412096202328 ], [ -83.167912540528633, -69.353601608090543 ], [ -83.71592860185379, -69.749104216217475 ], [ -84.284777209398044, -70.142820665959235 ], [ -84.875621262354741, -70.534644118055539 ], [ -85.489701969484344, -70.924459468489431 ], [ -86.1283443878349, -71.312142601821662 ], [ -86.792963254397975, -71.697559571595619 ], [ -87.485069089090473, -72.080565700999131 ], [ -88.206274533380579, -72.461004596584047 ], [ -88.958300870604262, -72.838707067537996 ], [ -89.742984650521961, -73.213489942820303 ], [ -90.562284310725346, -73.585154778476749 ], [ -91.418286649672211, -73.95348644771731 ], [ -92.313212958727888, -74.318251606981192 ], [ -93.249424561713482, -74.679197032361671 ], [ -94.229427438002432, -75.036047822591698 ], [ -95.25587551694295, -75.388505467517831 ], [ -96.331572125129412, -75.736245784885313 ], [ -97.459468941893078, -76.078916733647645 ], [ -98.642661671114254, -76.41613611929229 ], [ -99.884381469147812, -76.747489216290489 ], [ -101.187980981524305, -77.072526345238245 ], [ -102.556913640732873, -77.390760458086774 ], [ -103.994704674337669, -77.701664804576112 ], [ -105.504912084388906, -78.004670776998694 ], [ -107.09107571226366, -78.299166058929671 ], [ -108.756652436053912, -78.584493236372836 ], [ -110.50493561242547, -78.859949066066307 ], [ -112.338957137987137, -79.124784633725952 ], [ -114.26137104588156, -79.378206671760736 ], [ -116.274318457536722, -79.619380336847968 ], [ -118.379275057687948, -79.847433766215318 ], [ -120.576884106995124, -80.061464729159852 ], [ -122.866780349002966, -80.26054965737886 ], [ -125.247412912278548, -80.443755263796547 ], [ -127.715878229652191, -80.610152835902227 ], [ -130.267776714090047, -80.758835111536683 ], [ -132.897108912267925, -80.888935415504221 ], [ -135.596227470562667, -80.999648468109555 ], [ -138.355859877612204, -81.090251998304026 ], [ -141.165213163288172, -81.160128043307679 ], [ -144.012165486861875, -81.208782639672492 ], [ -146.88354132147532, -81.235862553017313 ], [ -149.76545778967278, -81.241167787865464 ], [ -152.643721105194118, -81.224658874336711 ], [ -155.504245622283406, -81.186458323703064 ], [ -158.333464981529744, -81.126846129316746 ], [ -161.118705901199405, -81.046249692429484 ], [ -163.848500071546198, -80.945228998952302 ], [ -166.512817356477285, -80.824458201154215 ], [ -169.103212591400307, -80.684704931479672 ], [ -171.612887105618029, -80.526808688932931 ], [ -174.036673403287551, -80.351659514349222 ], [ -176.370956442881692, -80.160177950025286 ], [ -178.613547464605858, -79.953297008720057 ], [ 179.236473403702973, -79.731946600214428 ], [ 177.178930929576438, -79.497040613233025 ], [ 175.212732549534365, -79.249466646455701 ], [ 173.336040614713767, -78.990078232418526 ], [ 171.546432457381115, -78.719689300930185 ], [ 169.841044183948213, -78.439070577024367 ], [ 168.216696192617917, -78.148947592548168 ], [ 166.67, -77.85 ] ] } }
]
}
